STARLINK-2121           
1 47399U 21005BC  24039.74953197  .00000385  00000+0  44764-4 0  9997
2 47399  53.0547 213.3602 0001376  88.6547 271.4600 15.06406737168778
STARLINK-2122           
1 47400U 21005BD  24039.71079610  .00002232  00000+0  16861-3 0  9995
2 47400  53.0545 193.3071 0001344  95.1164 264.9978 15.06411480169057
STARLINK-2123           
1 47401U 21005BE  24039.72832261  .00018158  00000+0  12367-2 0  9996
2 47401  53.0546 203.2135 0001675  63.6461 296.4700 15.06341579169535
STARLINK-2124           
1 47402U 21005BF  24039.61405146  .00006301  00000+0  44125-3 0  9998
2 47402  53.0530 203.7260 0001226  87.2340 272.8789 15.06421266168900
STARLINK-2127           
1 47403U 21005BG  24039.75410562  .00000490  00000+0  51757-4 0  9995
2 47403  53.0533 203.0977 0001284  91.9795 268.1341 15.06412917169537
STARLINK-2128           
1 47404U 21005BH  24039.75042514  .00000680  00000+0  64555-4 0  9995
2 47404  53.0549 203.1146 0001350  94.2048 265.9096 15.06405192169534
STARLINK-2130           
1 47405U 21005BJ  24039.53388028  .00003627  00000+0  26218-3 0  9992
2 47405  53.0531 234.0858 0001343  85.9159 274.1983 15.06408387168468
STARLINK-2133           
1 47406U 21005BK  24039.76148324  .00000571  00000+0  57194-4 0  9994
2 47406  53.0539 203.0647 0001244  81.0529 279.0601 15.06402509169548
STARLINK-2134           
1 47407U 21005BL  24039.76885428  .00000508  00000+0  52987-4 0  9993
2 47407  53.0539 203.0359 0001513  95.5531 264.5630 15.06406141169537
STARLINK-2135           
1 47408U 21005BM  24039.60667139  .00000853  00000+0  76162-4 0  9998
2 47408  53.0535 203.7622 0001276  92.2813 267.8322 15.06406707168909
STARLINK-1782           
1 47548U 21009A   24039.61220295  .00010020  00000+0  69004-3 0  9999
2 47548  53.0533 183.7381 0001222  77.0546 283.0580 15.06431442166375
STARLINK-1806           
1 47549U 21009B   24039.67485119  .00002173  00000+0  16466-3 0  9998
2 47549  53.0539 183.4575 0001228  90.7845 269.3285 15.06415729166991
STARLINK-1909           
1 47550U 21009C   24039.75318348  .00002437  00000+0  18235-3 0  9997
2 47550  53.0529 173.1032 0001185  90.3176 269.7949 15.06411256167141
STARLINK-1938           
1 47551U 21009D   24039.61498572 -.00001420  00000+0 -76453-4 0  9991
2 47551  53.0544 193.7258 0001089  77.3013 282.8098 15.06394109166232
STARLINK-1940           
1 47552U 21009E   24039.61956774  .00001516  00000+0  12060-3 0  9992
2 47552  53.0546 183.7045 0001224  89.5621 270.5509 15.06410851166378
STARLINK-1953           
1 47554U 21009G   24039.75778909  .00001433  00000+0  11503-3 0  9990
2 47554  53.0550 203.0811 0001485  92.1561 267.9598 15.06412883166728
STARLINK-1954           
1 47555U 21009H   24039.73292379  .00000934  00000+0  81566-4 0  9993
2 47555  53.0541 193.1920 0001291  80.3225 279.7910 15.06401799166868
STARLINK-1955           
1 47556U 21009J   24039.76793457  .00001113  00000+0  93618-4 0  9991
2 47556  53.0541 213.0403 0001457  84.5182 275.5974 15.06406515166572
STARLINK-1956           
1 47557U 21009K   24039.46571013  .00006525  00000+0  45647-3 0  9991
2 47557  53.0515 214.3974 0001323  99.9759 260.1379 15.06402205165933
STARLINK-1957           
1 47558U 21009L   24039.71171918  .00001956  00000+0  15014-3 0  9998
2 47558  53.0537 183.2916 0001577  74.9734 285.1430 15.06406759166995
STARLINK-1958           
1 47559U 21009M   24039.67576907  .00001532  00000+0  12168-3 0  9998
2 47559  53.0531 173.4534 0001167  93.5207 266.5916 15.06418525167137
STARLINK-1959           
1 47560U 21009N   24039.60109784  .00002456  00000+0  18363-3 0  9997
2 47560  53.0558 173.7834 0001526 108.8088 251.3067 15.06421165167122
STARLINK-1960           
1 47561U 21009P   24039.65551982 -.00000251  00000+0  20158-5 0  9993
2 47561  53.0550 193.5401 0001245 100.0553 260.0576 15.06402190166852
STARLINK-1961           
1 47562U 21009Q   24039.60391142  .00000362  00000+0  43190-4 0  9991
2 47562  53.0524 193.7745 0001194  92.6697 267.4429 15.06397255166230
STARLINK-1962           
1 47563U 21009R   24039.42698579 -.00000067  00000+0  14360-4 0  9996
2 47563  53.0541 194.5709 0001237  88.1104 272.0027 15.06402419166202
STARLINK-1963           
1 47564U 21009S   24039.62694027  .00000884  00000+0  78185-4 0  9994
2 47564  53.0534 183.6678 0001168  90.7660 269.3463 15.06407786166977
STARLINK-1964           
1 47565U 21009T   24039.62325222 -.00000046  00000+0  15778-4 0  9993
2 47565  53.0545 183.6838 0001148  94.3431 265.7689 15.06410680166373
STARLINK-1965           
1 47566U 21009U   24039.68315460  .00000880  00000+0  77928-4 0  9993
2 47566  53.0540 173.4212 0001163  78.6682 281.4438 15.06408608167131
STARLINK-1966           
1 47567U 21009V   24039.18926167  .00000740  00000+0  68609-4 0  9992
2 47567  53.0517 215.6386 0001241  81.3830 278.7299 15.06384851165887
STARLINK-1967           
1 47568U 21009W   24039.21506222 -.00000471  00000+0 -12749-4 0  9990
2 47568  53.0536 215.5201 0001404  89.7073 270.4077 15.06384156165898
STARLINK-1969           
1 47570U 21009Y   24039.60574350  .00001746  00000+0  13604-3 0  9997
2 47570  53.0541 173.7629 0001145  95.6783 264.4337 15.06417815166513
STARLINK-1970           
1 47571U 21009Z   24039.68222765  .00001107  00000+0  93160-4 0  9993
2 47571  53.0544 183.4227 0001422  82.7583 277.3567 15.06414667166994
STARLINK-1971           
1 47572U 21009AA  24039.66380228  .00001456  00000+0  11658-3 0  9999
2 47572  53.0544 183.5039 0001165  81.9608 278.1513 15.06410160166983
STARLINK-1975           
1 47573U 21009AB  24039.70803341  .00001750  00000+0  13634-3 0  9994
2 47573  53.0541 183.3083 0001279  75.7108 284.4023 15.06407305166983
STARLINK-1976           
1 47574U 21009AC  24039.45833168  .00000022  00000+0  20354-4 0  9996
2 47574  53.0517 214.4249 0001298  85.8971 274.2166 15.06379309165928
STARLINK-1977           
1 47575U 21009AD  24039.51360257  .00000041  00000+0  21623-4 0  9999
2 47575  53.0547 214.1774 0001309  86.9694 273.1445 15.06409327165932
STARLINK-1978           
1 47576U 21009AE  24039.67946482  .00003237  00000+0  23596-3 0  9997
2 47576  53.0545 173.4381 0001054  73.6117 286.4988 15.06417193167135
STARLINK-1979           
1 47577U 21009AF  24039.65412241  .00000694  00000+0  65450-4 0  9997
2 47577  53.0543 188.5484 0001181  92.9049 267.2075 15.06407992166919
STARLINK-1980           
1 47578U 21009AG  24039.64814986  .00004339  00000+0  30998-3 0  9997
2 47578  53.0537 193.5771 0001003  75.5712 284.5388 15.06403617166835
STARLINK-1981           
1 47579U 21009AH  24039.56428253  .00000783  00000+0  71428-4 0  9990
2 47579  53.0556 183.9520 0001331  87.5964 272.5177 15.06404205166363
STARLINK-1982           
1 47580U 21009AJ  24039.58549713 -.00000848  00000+0 -38028-4 0  9992
2 47580  53.0527 193.8611 0001158  79.8079 280.3041 15.06390436166224
STARLINK-1984           
1 47581U 21009AK  24039.63155511 -.00005416  00000+0 -34516-3 0  9991
2 47581  53.0534 173.6520 0001332  79.5987 280.5152 15.06382759167121
STARLINK-1986           
1 47582U 21009AL  24039.61864958  .00000803  00000+0  72786-4 0  9997
2 47582  53.0542 193.7114 0001216  82.1167 277.9960 15.06402902166235
STARLINK-1987           
1 47583U 21009AM  24039.59653721 -.00001463  00000+0 -79353-4 0  9991
2 47583  53.0528 193.8090 0001449  75.0463 285.0686 15.06396912166230
STARLINK-1989           
1 47585U 21009AP  24039.68867764 -.00000147  00000+0  90077-5 0  9991
2 47585  53.0549 193.3916 0001149  82.7316 277.3804 15.06414965166859
STARLINK-1990           
1 47586U 21009AQ  24039.47306069  .00000335  00000+0  41397-4 0  9993
2 47586  53.0525 214.3605 0001220  97.0067 263.1061 15.06398575165939
STARLINK-1991           
1 47587U 21009AR  24039.60113340  .00002490  00000+0  18594-3 0  9993
2 47587  53.0552 183.7888 0001271  89.5853 270.5282 15.06414982166374
STARLINK-1993           
1 47588U 21009AS  24039.65919501  .00002131  00000+0  16188-3 0  9991
2 47588  53.0549 193.5302 0001393  96.2900 263.8248 15.06413003166857
STARLINK-1994           
1 47589U 21009AT  24039.74397680  .00000111  00000+0  26327-4 0  9993
2 47589  53.0537 193.1475 0001209  83.3705 276.7421 15.06399295166861
STARLINK-1995           
1 47590U 21009AU  24039.80110881  .00001315  00000+0  10717-3 0  9990
2 47590  53.0527 212.8955 0001540  88.8990 271.2175 15.06400185166584
STARLINK-1996           
1 47591U 21009AV  24039.74028735  .00001387  00000+0  11200-3 0  9997
2 47591  53.0525 193.1624 0001279 104.1058 256.0073 15.06404563166855
STARLINK-1997           
1 47592U 21009AW  24039.63892442  .00001157  00000+0  96516-4 0  9999
2 47592  53.0546 213.6178 0001398  98.8262 261.2886 15.06406605166555
STARLINK-1998           
1 47593U 21009AX  24039.47675936 -.00001310  00000+0 -69074-4 0  9991
2 47593  53.0526 214.3489 0001159  92.8822 267.2300 15.06387111165936
STARLINK-1999           
1 47594U 21009AY  24039.50993474 -.00001848  00000+0 -10524-3 0  9997
2 47594  53.0546 214.1960 0001370  95.9882 264.1263 15.06396374165931
STARLINK-2000           
1 47595U 21009AZ  24039.76057282  .00002124  00000+0  16147-3 0  9997
2 47595  53.0533 213.0695 0001309  97.8968 262.2170 15.06399414166574
STARLINK-2001           
1 47596U 21009BA  24039.69789870 -.00000371  00000+0 -60281-5 0  9999
2 47596  53.0527 213.3507 0001218  75.4811 284.6313 15.06405430166563
STARLINK-2002           
1 47597U 21009BB  24039.75687571  .00007154  00000+0  49856-3 0  9999
2 47597  53.0530 213.0855 0001702  76.8426 283.2753 15.06411198166589
STARLINK-2003           
1 47598U 21009BC  24039.70067978 -.00000256  00000+0  16826-5 0  9998
2 47598  53.0537 183.3364 0001246  98.9724 261.1406 15.06398780167009
STARLINK-2004           
1 47599U 21009BD  24039.69052841  .00006970  00000+0  48620-3 0  9993
2 47599  53.0530 173.3867 0000971  82.6176 277.4924 15.06410834167139
